[{"OBJECT_NAME":"ONEWEB-0509","OBJECT_ID":"2022-138Q","EPOCH":"2026-05-20T04:35:34.065600","MEAN_MOTION":13.19725655,"ECCENTRICITY":0.0001758,"INCLINATION":87.9158,"RA_OF_ASC_NODE":310.5442,"ARG_OF_PERICENTER":88.9669,"MEAN_ANOMALY":271.1665,"EPHEMERIS_TYPE":0,"CLASSIFICATION_TYPE":"U","NORAD_CAT_ID":54127,"ELEMENT_SET_NO":999,"REV_AT_EPOCH":17311,"BSTAR":-0.00010059999999999999,"MEAN_MOTION_DOT":-2.7e-07,"MEAN_MOTION_DDOT":0.0},{"OBJECT_NAME":"ONEWEB-0510","OBJECT_ID":"2022-138R","EPOCH":"2026-05-20T15:10:31.895040","MEAN_MOTION":13.20771316,"ECCENTRICITY":0.0002204,"INCLINATION":87.9173,"RA_OF_ASC_NODE":279.9304,"ARG_OF_PERICENTER":107.8415,"MEAN_ANOMALY":252.2959,"EPHEMERIS_TYPE":0,"CLASSIFICATION_TYPE":"U","NORAD_CAT_ID":54128,"ELEMENT_SET_NO":999,"REV_AT_EPOCH":17564,"BSTAR":0.00045758,"MEAN_MOTION_DOT":1.99e-06,"MEAN_MOTION_DDOT":0.0},{"OBJECT_NAME":"ONEWEB-0511","OBJECT_ID":"2022-138S","EPOCH":"2026-05-20T00:52:39.260064","MEAN_MOTION":13.19724538,"ECCENTRICITY":0.0002064,"INCLINATION":87.9156,"RA_OF_ASC_NODE":310.5788,"ARG_OF_PERICENTER":87.5884,"MEAN_ANOMALY":272.5485,"EPHEMERIS_TYPE":0,"CLASSIFICATION_TYPE":"U","NORAD_CAT_ID":54129,"ELEMENT_SET_NO":999,"REV_AT_EPOCH":17312,"BSTAR":0.00015531,"MEAN_MOTION_DOT":7.5e-07,"MEAN_MOTION_DDOT":0.0},{"OBJECT_NAME":"ONEWEB-0512","OBJECT_ID":"2022-138T","EPOCH":"2026-05-20T11:36:19.776672","MEAN_MOTION":13.19727101,"ECCENTRICITY":0.0001857,"INCLINATION":87.9148,"RA_OF_ASC_NODE":310.4967,"ARG_OF_PERICENTER":81.689,"MEAN_ANOMALY":278.4453,"EPHEMERIS_TYPE":0,"CLASSIFICATION_TYPE":"U","NORAD_CAT_ID":54130,"ELEMENT_SET_NO":999,"REV_AT_EPOCH":17315,"BSTAR":8.5415e-05,"MEAN_MOTION_DOT":4.7e-07,"MEAN_MOTION_DDOT":0.0},{"OBJECT_NAME":"ONEWEB-0513","OBJECT_ID":"2022-138U","EPOCH":"2026-05-19T23:16:53.129568","MEAN_MOTION":13.20266941,"ECCENTRICITY":0.0002333,"INCLINATION":87.9154,"RA_OF_ASC_NODE":310.5467,"ARG_OF_PERICENTER":69.6329,"MEAN_ANOMALY":290.5055,"EPHEMERIS_TYPE":0,"CLASSIFICATION_TYPE":"U","NORAD_CAT_ID":54131,"ELEMENT_SET_NO":999,"REV_AT_EPOCH":17299,"BSTAR":8.7118e-05,"MEAN_MOTION_DOT":4.8e-07,"MEAN_MOTION_DDOT":0.0},{"OBJECT_NAME":"ONEWEB-0514","OBJECT_ID":"2022-138V","EPOCH":"2026-05-20T04:42:22.939776","MEAN_MOTION":13.19725722,"ECCENTRICITY":0.0001896,"INCLINATION":87.9154,"RA_OF_ASC_NODE":310.5448,"ARG_OF_PERICENTER":95.8643,"MEAN_ANOMALY":264.2706,"EPHEMERIS_TYPE":0,"CLASSIFICATION_TYPE":"U","NORAD_CAT_ID":54132,"ELEMENT_SET_NO":999,"REV_AT_EPOCH":17313,"BSTAR":-3.0552000000000004e-06,"MEAN_MOTION_DOT":1.2e-07,"MEAN_MOTION_DDOT":0.0},{"OBJECT_NAME":"ONEWEB-0515","OBJECT_ID":"2022-138W","EPOCH":"2026-05-20T14:51:06.632064","MEAN_MOTION":13.20772006,"ECCENTRICITY":0.0001802,"INCLINATION":87.9179,"RA_OF_ASC_NODE":279.9263,"ARG_OF_PERICENTER":125.7779,"MEAN_ANOMALY":234.3523,"EPHEMERIS_TYPE":0,"CLASSIFICATION_TYPE":"U","NORAD_CAT_ID":54133,"ELEMENT_SET_NO":999,"REV_AT_EPOCH":17566,"BSTAR":0.00020692,"MEAN_MOTION_DOT":9.7e-07,"MEAN_MOTION_DDOT":0.0},{"OBJECT_NAME":"ONEWEB-0516","OBJECT_ID":"2022-138X","EPOCH":"2026-05-20T11:22:41.649888","MEAN_MOTION":13.19726485,"ECCENTRICITY":0.0001648,"INCLINATION":87.9147,"RA_OF_ASC_NODE":310.4989,"ARG_OF_PERICENTER":91.0326,"MEAN_ANOMALY":269.0996,"EPHEMERIS_TYPE":0,"CLASSIFICATION_TYPE":"U","NORAD_CAT_ID":54134,"ELEMENT_SET_NO":999,"REV_AT_EPOCH":17317,"BSTAR":4.7919e-05,"MEAN_MOTION_DOT":3.2e-07,"MEAN_MOTION_DDOT":0.0},{"OBJECT_NAME":"ONEWEB-0517","OBJECT_ID":"2022-138Y","EPOCH":"2026-05-20T10:53:07.285920","MEAN_MOTION":13.19725593,"ECCENTRICITY":0.0002125,"INCLINATION":87.9152,"RA_OF_ASC_NODE":310.4936,"ARG_OF_PERICENTER":91.8335,"MEAN_ANOMALY":268.3041,"EPHEMERIS_TYPE":0,"CLASSIFICATION_TYPE":"U","NORAD_CAT_ID":54135,"ELEMENT_SET_NO":999,"REV_AT_EPOCH":17317,"BSTAR":-0.00017299,"MEAN_MOTION_DOT":-5.6e-07,"MEAN_MOTION_DDOT":0.0},{"OBJECT_NAME":"ONEWEB-0518","OBJECT_ID":"2022-138Z","EPOCH":"2026-05-20T04:03:42.855264","MEAN_MOTION":13.19724846,"ECCENTRICITY":0.000165,"INCLINATION":87.9147,"RA_OF_ASC_NODE":310.5614,"ARG_OF_PERICENTER":89.3508,"MEAN_ANOMALY":270.7814,"EPHEMERIS_TYPE":0,"CLASSIFICATION_TYPE":"U","NORAD_CAT_ID":54136,"ELEMENT_SET_NO":999,"REV_AT_EPOCH":17313,"BSTAR":-5.6424e-05,"MEAN_MOTION_DOT":-1e-07,"MEAN_MOTION_DDOT":0.0},{"OBJECT_NAME":"ONEWEB-0519","OBJECT_ID":"2022-138AA","EPOCH":"2026-05-20T01:01:41.757024","MEAN_MOTION":13.19751881,"ECCENTRICITY":0.000192,"INCLINATION":87.9146,"RA_OF_ASC_NODE":310.5743,"ARG_OF_PERICENTER":92.3146,"MEAN_ANOMALY":267.8207,"EPHEMERIS_TYPE":0,"CLASSIFICATION_TYPE":"U","NORAD_CAT_ID":54137,"ELEMENT_SET_NO":999,"REV_AT_EPOCH":17312,"BSTAR":0.0082313,"MEAN_MOTION_DOT":3.311e-05,"MEAN_MOTION_DDOT":0.0},{"OBJECT_NAME":"ONEWEB-0520","OBJECT_ID":"2022-138AB","EPOCH":"2026-05-20T05:30:09.105120","MEAN_MOTION":13.19725923,"ECCENTRICITY":0.00017,"INCLINATION":87.9154,"RA_OF_ASC_NODE":310.5384,"ARG_OF_PERICENTER":83.9887,"MEAN_ANOMALY":276.144,"EPHEMERIS_TYPE":0,"CLASSIFICATION_TYPE":"U","NORAD_CAT_ID":54138,"ELEMENT_SET_NO":999,"REV_AT_EPOCH":17313,"BSTAR":-0.00012367000000000001,"MEAN_MOTION_DOT":-3.7e-07,"MEAN_MOTION_DDOT":0.0},{"OBJECT_NAME":"ONEWEB-0521","OBJECT_ID":"2022-138AC","EPOCH":"2026-05-20T00:50:22.818048","MEAN_MOTION":13.19725918,"ECCENTRICITY":0.0002052,"INCLINATION":87.9156,"RA_OF_ASC_NODE":310.5654,"ARG_OF_PERICENTER":94.7081,"MEAN_ANOMALY":265.4286,"EPHEMERIS_TYPE":0,"CLASSIFICATION_TYPE":"U","NORAD_CAT_ID":54139,"ELEMENT_SET_NO":999,"REV_AT_EPOCH":17305,"BSTAR":5.6241e-05,"MEAN_MOTION_DOT":3.5e-07,"MEAN_MOTION_DDOT":0.0},{"OBJECT_NAME":"ONEWEB-0522","OBJECT_ID":"2022-138AD","EPOCH":"2026-05-20T11:15:52.322112","MEAN_MOTION":13.19726311,"ECCENTRICITY":0.0001808,"INCLINATION":87.9157,"RA_OF_ASC_NODE":310.4811,"ARG_OF_PERICENTER":87.7094,"MEAN_ANOMALY":272.4246,"EPHEMERIS_TYPE":0,"CLASSIFICATION_TYPE":"U","NORAD_CAT_ID":54140,"ELEMENT_SET_NO":999,"REV_AT_EPOCH":17315,"BSTAR":1.2875000000000001e-05,"MEAN_MOTION_DOT":1.8e-07,"MEAN_MOTION_DDOT":0.0},{"OBJECT_NAME":"ONEWEB-0523","OBJECT_ID":"2022-138AE","EPOCH":"2026-05-20T07:15:20.719296","MEAN_MOTION":13.20771893,"ECCENTRICITY":0.0002326,"INCLINATION":87.917,"RA_OF_ASC_NODE":280.0004,"ARG_OF_PERICENTER":117.7619,"MEAN_ANOMALY":242.3751,"EPHEMERIS_TYPE":0,"CLASSIFICATION_TYPE":"U","NORAD_CAT_ID":54141,"ELEMENT_SET_NO":999,"REV_AT_EPOCH":17562,"BSTAR":-0.00017211,"MEAN_MOTION_DOT":-5.7e-07,"MEAN_MOTION_DDOT":0.0},{"OBJECT_NAME":"ONEWEB-0524","OBJECT_ID":"2022-138AF","EPOCH":"2026-05-20T07:00:47.630880","MEAN_MOTION":13.20771935,"ECCENTRICITY":0.0001456,"INCLINATION":87.9172,"RA_OF_ASC_NODE":279.9998,"ARG_OF_PERICENTER":126.3691,"MEAN_ANOMALY":233.7577,"EPHEMERIS_TYPE":0,"CLASSIFICATION_TYPE":"U","NORAD_CAT_ID":54142,"ELEMENT_SET_NO":999,"REV_AT_EPOCH":17562,"BSTAR":-5.4359000000000006e-05,"MEAN_MOTION_DOT":-9e-08,"MEAN_MOTION_DDOT":0.0},{"OBJECT_NAME":"ONEWEB-0525","OBJECT_ID":"2022-138AG","EPOCH":"2026-05-20T00:48:06.134112","MEAN_MOTION":13.19728123,"ECCENTRICITY":0.0001713,"INCLINATION":87.9154,"RA_OF_ASC_NODE":310.5764,"ARG_OF_PERICENTER":84.0575,"MEAN_ANOMALY":276.0753,"EPHEMERIS_TYPE":0,"CLASSIFICATION_TYPE":"U","NORAD_CAT_ID":54143,"ELEMENT_SET_NO":999,"REV_AT_EPOCH":17311,"BSTAR":6.1192e-05,"MEAN_MOTION_DOT":3.7e-07,"MEAN_MOTION_DDOT":0.0},{"OBJECT_NAME":"ONEWEB-0526","OBJECT_ID":"2022-138AH","EPOCH":"2026-05-20T10:41:45.583872","MEAN_MOTION":13.19725927,"ECCENTRICITY":0.0001698,"INCLINATION":87.9157,"RA_OF_ASC_NODE":310.4944,"ARG_OF_PERICENTER":91.0614,"MEAN_ANOMALY":269.0714,"EPHEMERIS_TYPE":0,"CLASSIFICATION_TYPE":"U","NORAD_CAT_ID":54144,"ELEMENT_SET_NO":999,"REV_AT_EPOCH":17314,"BSTAR":0.00028443,"MEAN_MOTION_DOT":1.27e-06,"MEAN_MOTION_DDOT":0.0},{"OBJECT_NAME":"ONEWEB-0529","OBJECT_ID":"2022-138AJ","EPOCH":"2026-05-20T05:18:46.168416","MEAN_MOTION":13.19725468,"ECCENTRICITY":0.0001673,"INCLINATION":87.9149,"RA_OF_ASC_NODE":310.5504,"ARG_OF_PERICENTER":85.4849,"MEAN_ANOMALY":274.6475,"EPHEMERIS_TYPE":0,"CLASSIFICATION_TYPE":"U","NORAD_CAT_ID":54145,"ELEMENT_SET_NO":999,"REV_AT_EPOCH":17313,"BSTAR":-0.00015717999999999998,"MEAN_MOTION_DOT":-5e-07,"MEAN_MOTION_DDOT":0.0},{"OBJECT_NAME":"ONEWEB-0531","OBJECT_ID":"2022-138AK","EPOCH":"2026-05-20T08:30:32.426208","MEAN_MOTION":13.20770414,"ECCENTRICITY":0.0002088,"INCLINATION":87.9173,"RA_OF_ASC_NODE":279.9856,"ARG_OF_PERICENTER":123.5827,"MEAN_ANOMALY":236.5506,"EPHEMERIS_TYPE":0,"CLASSIFICATION_TYPE":"U","NORAD_CAT_ID":54146,"ELEMENT_SET_NO":999,"REV_AT_EPOCH":17563,"BSTAR":0.00034439,"MEAN_MOTION_DOT":1.53e-06,"MEAN_MOTION_DDOT":0.0},{"OBJECT_NAME":"ONEWEB-0535","OBJECT_ID":"2022-138AL","EPOCH":"2026-05-20T04:17:22.034400","MEAN_MOTION":13.19725769,"ECCENTRICITY":0.0002002,"INCLINATION":87.9157,"RA_OF_ASC_NODE":310.541,"ARG_OF_PERICENTER":100.7298,"MEAN_ANOMALY":259.406,"EPHEMERIS_TYPE":0,"CLASSIFICATION_TYPE":"U","NORAD_CAT_ID":54147,"ELEMENT_SET_NO":999,"REV_AT_EPOCH":17314,"BSTAR":0.00016992,"MEAN_MOTION_DOT":8.1e-07,"MEAN_MOTION_DDOT":0.0},{"OBJECT_NAME":"ONEWEB-0536","OBJECT_ID":"2022-138AM","EPOCH":"2026-05-20T15:27:27.762912","MEAN_MOTION":13.20772351,"ECCENTRICITY":0.0002038,"INCLINATION":87.916,"RA_OF_ASC_NODE":279.9529,"ARG_OF_PERICENTER":128.6302,"MEAN_ANOMALY":231.5014,"EPHEMERIS_TYPE":0,"CLASSIFICATION_TYPE":"U","NORAD_CAT_ID":54148,"ELEMENT_SET_NO":999,"REV_AT_EPOCH":17566,"BSTAR":0.00022666,"MEAN_MOTION_DOT":1.05e-06,"MEAN_MOTION_DDOT":0.0},{"OBJECT_NAME":"ONEWEB-0527","OBJECT_ID":"2022-166A","EPOCH":"2026-05-20T12:59:49.642656","MEAN_MOTION":13.21827393,"ECCENTRICITY":0.0001919,"INCLINATION":87.9249,"RA_OF_ASC_NODE":249.4961,"ARG_OF_PERICENTER":102.0866,"MEAN_ANOMALY":258.0483,"EPHEMERIS_TYPE":0,"CLASSIFICATION_TYPE":"U","NORAD_CAT_ID":54642,"ELEMENT_SET_NO":999,"REV_AT_EPOCH":16788,"BSTAR":0.00019303999999999998,"MEAN_MOTION_DOT":9.3e-07,"MEAN_MOTION_DDOT":0.0}]